{
  "type": "FeatureCollection",
  "features": [
    {
      "type": "Feature",
      "properties": {
        "norad_id": 63632,
        "name": "SHENZHOU-20 (SZ-20)",
        "group": "stations",
        "lat": 7.153693142233424,
        "lon": -145.44343612817255,
        "alt_km": 395.71105254276426,
        "timestamp": "2025-12-08T10:52:01.736681+00:00",
        "meta_object_name": "SHENZHOU-20 (SZ-20)",
        "meta_object_id": "2025-082A",
        "meta_epoch": "2025-12-07T23:22:56.643744",
        "meta_mean_motion": 15.58863749,
        "meta_eccentricity": 0.00092535,
        "meta_inclination": 41.4683,
        "meta_ra_of_asc_node": 45.6321,
        "meta_arg_of_pericenter": 352.4121,
        "meta_mean_anomaly": 7.6575,
        "meta_ephemeris_type": 0,
        "meta_classification_type": "U",
        "meta_norad_cat_id": 63632,
        "meta_element_set_no": 999,
        "meta_rev_at_epoch": 25530,
        "meta_bstar": 0.00029193568,
        "meta_mean_motion_dot": 0.00023028,
        "meta_mean_motion_ddot": 0,
        "tle_line1": "1 63632U 25082A   25341.97426671  .00023028  00000+0  29194-3 0  9996",
        "tle_line2": "2 63632  41.4683  45.6321 0009253 352.4121   7.6575 15.58863749255307"
      },
      "geometry": {
        "type": "Point",
        "coordinates": [
          -145.44343612817255,
          7.153693142233424
        ]
      }
    },
    {
      "type": "Feature",
      "properties": {
        "norad_id": 64751,
        "name": "PROGRESS-MS 31",
        "group": "stations",
        "lat": -30.308331764088823,
        "lon": 11.293570144075119,
        "alt_km": 419.7916207604867,
        "timestamp": "2025-12-08T10:52:01.736692+00:00",
        "meta_object_name": "PROGRESS-MS 31",
        "meta_object_id": "2025-146A",
        "meta_epoch": "2025-12-07T21:32:16.385568",
        "meta_mean_motion": 15.49404055,
        "meta_eccentricity": 0.0003425,
        "meta_inclination": 51.6302,
        "meta_ra_of_asc_node": 166.4547,
        "meta_arg_of_pericenter": 217.7386,
        "meta_mean_anomaly": 142.3363,
        "meta_ephemeris_type": 0,
        "meta_classification_type": "U",
        "meta_norad_cat_id": 64751,
        "meta_element_set_no": 999,
        "meta_rev_at_epoch": 675,
        "meta_bstar": 0.00022339025,
        "meta_mean_motion_dot": 0.00012051,
        "meta_mean_motion_ddot": 0,
        "tle_line1": "1 64751U 25146A   25341.89741187  .00012051  00000+0  22339-3 0  9991",
        "tle_line2": "2 64751  51.6302 166.4547 0003425 217.7386 142.3363 15.49404055  6750"
      },
      "geometry": {
        "type": "Point",
        "coordinates": [
          11.293570144075119,
          -30.308331764088823
        ]
      }
    },
    {
      "type": "Feature",
      "properties": {
        "norad_id": 64786,
        "name": "TIANZHOU-9",
        "group": "stations",
        "lat": 7.153692248639877,
        "lon": -145.4434350912887,
        "alt_km": 395.71105268861174,
        "timestamp": "2025-12-08T10:52:01.736702+00:00",
        "meta_object_name": "TIANZHOU-9",
        "meta_object_id": "2025-149A",
        "meta_epoch": "2025-12-07T23:22:56.643744",
        "meta_mean_motion": 15.58863749,
        "meta_eccentricity": 0.00092535,
        "meta_inclination": 41.4683,
        "meta_ra_of_asc_node": 45.6321,
        "meta_arg_of_pericenter": 352.4121,
        "meta_mean_anomaly": 7.6575,
        "meta_ephemeris_type": 0,
        "meta_classification_type": "U",
        "meta_norad_cat_id": 64786,
        "meta_element_set_no": 999,
        "meta_rev_at_epoch": 25530,
        "meta_bstar": 0.00029193568,
        "meta_mean_motion_dot": 0.00023028,
        "meta_mean_motion_ddot": 0,
        "tle_line1": "1 64786U 25149A   25341.97426671  .00023028  00000+0  29194-3 0  9991",
        "tle_line2": "2 64786  41.4683  45.6321 0009253 352.4121   7.6575 15.58863749255308"
      },
      "geometry": {
        "type": "Point",
        "coordinates": [
          -145.4434350912887,
          7.153692248639877
        ]
      }
    },
    {
      "type": "Feature",
      "properties": {
        "norad_id": 65077,
        "name": "CREW DRAGON 11",
        "group": "stations",
        "lat": -30.308332795853346,
        "lon": 11.293571380268162,
        "alt_km": 419.7916208262086,
        "timestamp": "2025-12-08T10:52:01.736715+00:00",
        "meta_object_name": "CREW DRAGON 11",
        "meta_object_id": "2025-166A",
        "meta_epoch": "2025-12-07T21:32:16.385568",
        "meta_mean_motion": 15.49404055,
        "meta_eccentricity": 0.0003425,
        "meta_inclination": 51.6302,
        "meta_ra_of_asc_node": 166.4547,
        "meta_arg_of_pericenter": 217.7386,
        "meta_mean_anomaly": 142.3363,
        "meta_ephemeris_type": 0,
        "meta_classification_type": "U",
        "meta_norad_cat_id": 65077,
        "meta_element_set_no": 999,
        "meta_rev_at_epoch": 214,
        "meta_bstar": 0.00022339025,
        "meta_mean_motion_dot": 0.00012051,
        "meta_mean_motion_ddot": 0,
        "tle_line1": "1 65077U 25166A   25341.89741187  .00012051  00000+0  22339-3 0  9995",
        "tle_line2": "2 65077  51.6302 166.4547 0003425 217.7386 142.3363 15.49404055  2141"
      },
      "geometry": {
        "type": "Point",
        "coordinates": [
          11.293571380268162,
          -30.308332795853346
        ]
      }
    },
    {
      "type": "Feature",
      "properties": {
        "norad_id": 65304,
        "name": "DRAGON CRS-33",
        "group": "stations",
        "lat": -30.30833324444659,
        "lon": 11.293571917743376,
        "alt_km": 419.7916208547849,
        "timestamp": "2025-12-08T10:52:01.736725+00:00",
        "meta_object_name": "DRAGON CRS-33",
        "meta_object_id": "2025-186A",
        "meta_epoch": "2025-12-07T21:32:16.385568",
        "meta_mean_motion": 15.49404055,
        "meta_eccentricity": 0.0003425,
        "meta_inclination": 51.6302,
        "meta_ra_of_asc_node": 166.4547,
        "meta_arg_of_pericenter": 217.7386,
        "meta_mean_anomaly": 142.3363,
        "meta_ephemeris_type": 0,
        "meta_classification_type": "U",
        "meta_norad_cat_id": 65304,
        "meta_element_set_no": 999,
        "meta_rev_at_epoch": 11,
        "meta_bstar": 0.00022339025,
        "meta_mean_motion_dot": 0.00012051,
        "meta_mean_motion_ddot": 0,
        "tle_line1": "1 65304U 25186A   25341.89741187  .00012051  00000+0  22339-3 0  9990",
        "tle_line2": "2 65304  51.6302 166.4547 0003425 217.7386 142.3363 15.49404055   119"
      },
      "geometry": {
        "type": "Point",
        "coordinates": [
          11.293571917743376,
          -30.30833324444659
        ]
      }
    },
    {
      "type": "Feature",
      "properties": {
        "norad_id": 65586,
        "name": "PROGRESS-MS 32",
        "group": "stations",
        "lat": -30.308333872477554,
        "lon": 11.293572670209196,
        "alt_km": 419.79162089478723,
        "timestamp": "2025-12-08T10:52:01.736739+00:00",
        "meta_object_name": "PROGRESS-MS 32",
        "meta_object_id": "2025-204A",
        "meta_epoch": "2025-12-07T21:32:16.385568",
        "meta_mean_motion": 15.49404055,
        "meta_eccentricity": 0.0003425,
        "meta_inclination": 51.6302,
        "meta_ra_of_asc_node": 166.4547,
        "meta_arg_of_pericenter": 217.7386,
        "meta_mean_anomaly": 142.3363,
        "meta_ephemeris_type": 0,
        "meta_classification_type": "U",
        "meta_norad_cat_id": 65586,
        "meta_element_set_no": 999,
        "meta_rev_at_epoch": 27,
        "meta_bstar": 0.00022339025,
        "meta_mean_motion_dot": 0.00012051,
        "meta_mean_motion_ddot": 0,
        "tle_line1": "1 65586U 25204A   25341.89741187  .00012051  00000+0  22339-3 0  9993",
        "tle_line2": "2 65586  51.6302 166.4547 0003425 217.7386 142.3363 15.49404055   278"
      },
      "geometry": {
        "type": "Point",
        "coordinates": [
          11.293572670209196,
          -30.308333872477554
        ]
      }
    },
    {
      "type": "Feature",
      "properties": {
        "norad_id": 65616,
        "name": "CYGNUS NG-23",
        "group": "stations",
        "lat": -30.30833432107049,
        "lon": 11.293573207684089,
        "alt_km": 419.79162092336173,
        "timestamp": "2025-12-08T10:52:01.736749+00:00",
        "meta_object_name": "CYGNUS NG-23",
        "meta_object_id": "2025-208A",
        "meta_epoch": "2025-12-07T21:32:16.385568",
        "meta_mean_motion": 15.49404055,
        "meta_eccentricity": 0.0003425,
        "meta_inclination": 51.6302,
        "meta_ra_of_asc_node": 166.4547,
        "meta_arg_of_pericenter": 217.7386,
        "meta_mean_anomaly": 142.3363,
        "meta_ephemeris_type": 0,
        "meta_classification_type": "U",
        "meta_norad_cat_id": 65616,
        "meta_element_set_no": 999,
        "meta_rev_at_epoch": 22,
        "meta_bstar": 0.00022339025,
        "meta_mean_motion_dot": 0.00012051,
        "meta_mean_motion_ddot": 0,
        "tle_line1": "1 65616U 25208A   25341.89741187  .00012051  00000+0  22339-3 0  9991",
        "tle_line2": "2 65616  51.6302 166.4547 0003425 217.7386 142.3363 15.49404055   227"
      },
      "geometry": {
        "type": "Point",
        "coordinates": [
          11.293573207684089,
          -30.30833432107049
        ]
      }
    }
  ]
}